GSAT0101 (PRN E11)      
1 37846U 11060A   22265.62506060 -.00000084  00000+0  00000+0 0  9999
2 37846  57.0302  18.6998 0001355  73.0564 286.9630  1.70475085 67876
GSAT0102 (PRN E12)      
1 37847U 11060B   22265.84778606 -.00000083  00000+0  00000+0 0  9990
2 37847  57.0311  18.6933 0001248 322.4154 221.0810  1.70475463 67884
GSAT0103 (PRN E19)      
1 38857U 12055A   22264.49126649  .00000012  00000+0  00000+0 0  9992
2 38857  55.1619 139.0583 0001753 250.6683 109.4047  1.70473819 61748
GSAT0104 (PRN E20)      
1 38858U 12055B   22264.46120583  .00000012  00000+0  00000+0 0  9991
2 38858  55.1619 139.0607 0000522 150.6058 209.4889  1.70474170 61740
GSAT0201 (PRN E18)      
1 40128U 14050A   22265.22918208 -.00000067  00000+0  00000+0 0  9996
2 40128  50.2167 328.4267 1620736 127.5699 248.2978  1.85519342 53011
GSAT0202 (PRN E14)      
1 40129U 14050B   22264.95084991 -.00000067  00000+0  00000+0 0  9999
2 40129  50.2405 327.5011 1617933 128.3715 247.3192  1.85519995 55178
GSAT0203 (PRN E26)      
1 40544U 15017A   22265.40508613 -.00000085  00000+0  00000+0 0  9997
2 40544  56.8257  18.7257 0003383 222.3343 137.6443  1.70476350 45952
GSAT0204 (PRN E22)      
1 40545U 15017B   22262.72510280 -.00000092  00000+0  00000+0 0  9991
2 40545  56.8305  18.8114 0003630 204.9262 155.0610  1.70475880  8957
GSAT0205 (PRN E24)      
1 40889U 15045A   22263.66557116  .00000039  00000+0  00000+0 0  9996
2 40889  55.5662 259.3318 0004062 349.8978  10.1050  1.70473397 43736
GSAT0206 (PRN E30)      
1 40890U 15045B   22265.05950266  .00000039  00000+0  00000+0 0  9996
2 40890  55.5648 259.2891 0003036 321.5382  38.4477  1.70473353 43786
GSAT0209 (PRN E09)      
1 41174U 15079A   22265.23369432  .00000019  00000+0  00000+0 0  9996
2 41174  55.1788 138.7422 0002843 332.5022  27.5797  1.70474261 42100
GSAT0208 (PRN E08)      
1 41175U 15079B   22266.03973233  .00000025  00000+0  00000+0 0  9993
2 41175  55.1769 138.7184 0002852 319.3370  40.7438  1.70474197 42112
GSAT0211 (PRN E02)      
1 41549U 16030A   22264.98544020  .00000039  00000+0  00000+0 0  9991
2 41549  55.7108 259.2342 0004643 306.0866  53.8781  1.70474898 39411
GSAT0210 (PRN E01)      
1 41550U 16030B   22263.51829054  .00000039  00000+0  00000+0 0  9994
2 41550  55.7110 259.2761 0004650 279.3682  80.5905  1.70474939 39362
GSAT0207 (PRN E07)      
1 41859U 16069A   22266.11402583  .00000025  00000+0  00000+0 0  9996
2 41859  54.8400 138.8751 0002801 308.8067  51.2706  1.70472842 36382
GSAT0212 (PRN E03)      
1 41860U 16069B   22265.38085352  .00000019  00000+0  00000+0 0  9990
2 41860  54.8368 138.8928 0002052   2.9195 357.1792  1.70472743 36401
GSAT0213 (PRN E04)      
1 41861U 16069C   22265.15956874  .00000017  00000+0  00000+0 0  9990
2 41861  54.8393 138.9043 0002198 271.5833  88.4875  1.70472982 36268
GSAT0214 (PRN E05)      
1 41862U 16069D   22265.30671697  .00000018  00000+0  00000+0 0  9996
2 41862  54.8376 138.8947 0001402 280.7069  79.3743  1.70472937 36399
GSAT0215 (PRN E21)      
1 43055U 17079A   22265.20993278  .00000039  00000+0  00000+0 0  9998
2 43055  55.6865 259.0591 0004112 275.5500  84.4096  1.70474069 29737
GSAT0216 (PRN E25)      
1 43056U 17079B   22264.91550519  .00000039  00000+0  00000+0 0  9993
2 43056  55.6871 259.0670 0005784 277.5431  82.3988  1.70474211 29741
GSAT0217 (PRN E27)      
1 43057U 17079C   22265.13576786  .00000039  00000+0  00000+0 0  9993
2 43057  55.6853 259.0606 0005256 287.8904  72.0591  1.70474141 29731
GSAT0218 (PRN E31)      
1 43058U 17079D   22265.35580519  .00000039  00000+0  00000+0 0  9997
2 43058  55.6851 259.0519 0006237 274.6824  85.2522  1.70474148 29735
GSAT0221 (PRN E15)      
1 43564U 18060A   22265.84120776 -.00000083  00000+0  00000+0 0  9999
2 43564  57.2074  18.5542 0003095 247.8776 112.0944  1.70476218 25938
GSAT0222 (PRN E33)      
1 43565U 18060B   22265.47449511 -.00000084  00000+0  00000+0 0  9991
2 43565  57.2095  18.5646 0002392 254.4247 105.5536  1.70476257 25963
GSAT0219 (PRN E36)      
1 43566U 18060C   22265.10845409 -.00000085  00000+0  00000+0 0  9999
2 43566  57.2098  18.5765 0002082 250.2958 109.6863  1.70476239 25933
GSAT0220 (PRN E13)      
1 43567U 18060D   22265.32863393 -.00000085  00000+0  00000+0 0  9996
2 43567  57.2100  18.5711 0002501 247.6495 112.3286  1.70476195 25921
GSAT0223                
1 49809U 21116A   22265.77432757 -.00000083  00000+0  00000+0 0  9990
2 49809  57.2019  18.4571 0003479 181.2784 182.2974  1.70476333  4940
GSAT0224                
1 49810U 21116B   22264.70983939 -.00000086  00000+0  00000+0 0  9990
2 49810  57.2029  18.4838 0002930 169.0455  13.7064  1.70476418  4941
